IRIDIUM 26              
1 24903U 97043A   25251.94525961  .00000406  00000+0  13000-3 0  9993
2 24903  86.3897  75.4088 0002174  94.7135 265.4311 14.37202418468772
IRIDIUM 22              
1 24907U 97043E   25251.94446209  .00000351  00000+0  11402-3 0  9997
2 24907  86.3899  79.0239 0002244  89.9959 270.1495 14.36008771468797
DUMMY MASS 1            
1 24925U 97048A   25251.86102075  .00000418  00000+0  43542-4 0  9998
2 24925  86.3295  96.6299 0005796 189.2307 170.8813 14.87048116517567
DUMMY MASS 2            
1 24926U 97048B   25251.83711243  .00000406  00000+0  42409-4 0  9997
2 24926  86.3297  98.2652 0006061 205.1350 154.9581 14.86799615517339
IRIDIUM 29              
1 24944U 97051A   25251.86772005  .00000389  00000+0  12580-3 0  9993
2 24944  86.3921 108.7988 0002154  81.4343 278.7099 14.36529166465280
IRIDIUM 33              
1 24946U 97051C   25251.87198301  .00000250  00000+0  80950-4 0  9991
2 24946  86.3835 108.0642 0008543 151.4942 208.6724 14.34936365464745
IRIDIUM 28              
1 24948U 97051E   25251.85795917  .00000342  00000+0  10793-3 0  9996
2 24948  86.3922 106.2690 0002237 101.0525 259.0925 14.37437361465861
IRIDIUM 36              
1 24967U 97056C   25251.94735097  .00000374  00000+0  11783-3 0  9990
2 24967  86.3995 137.8448 0002351  88.7877 271.3590 14.37666374464256
